NOAA 1 [-]              
1 04793U 70106A   21030.57232230 -.00000032  00000+0  79887-4 0  9995
2 04793 101.6276 100.5888 0031706 218.8886 279.1297 12.53997953294551
NOAA 2 (ITOS-D) [-]     
1 06235U 72082A   21030.52234903 -.00000044  00000+0  94723-5 0  9997
2 06235 101.8867   6.0371 0004035 321.0952 147.0376 12.53131730208970
NOAA 3 [-]              
1 06920U 73086A   21030.58651090 -.00000042  00000+0  28960-4 0  9996
2 06920 102.1403   7.0016 0006303 136.8533 334.3082 12.40342209138445
NOAA 4 [-]              
1 07529U 74089A   21030.58758003 -.00000057  00000+0 -75421-4 0  9999
2 07529 101.8443   5.2228 0009150 349.6093 124.6567 12.53147162113552
NOAA 5 [-]              
1 09057U 76077A   21030.51836973 -.00000043  00000+0  14438-4 0  9997
2 09057 102.0234   0.4528 0010124 349.4391 119.0433 12.37757305 11514
TIROS N [-]             
1 11060U 78096A   21030.57217157  .00000015  00000+0  28401-4 0  9993
2 11060  98.7092  90.6609 0011333 145.7356 214.4553 14.18294683400326
NOAA 6 [-]              
1 11416U 79057A   21030.55855294  .00000027  00000+0  26021-4 0  9993
2 11416  98.6646  35.6022 0009424 306.0196  54.0114 14.33615760169463
NOAA 7 [-]              
1 12553U 81059A   21030.58931628 -.00000017  00000+0  14267-4 0  9999
2 12553  99.0643  61.8867 0012482 103.6235 256.6330 14.17288618 46564
NOAA 8 [-]              
1 13923U 83022A   21030.46526716 -.00000007  00000+0  14748-4 0  9991
2 13923  98.6424  19.2754 0014177 239.6568 120.3212 14.28724455970582
NOAA 9 [-]              
1 15427U 84123A   21030.63447381 -.00000014  00000+0  15651-4 0  9996
2 15427  98.9752 352.1866 0015291 148.5856  24.7151 14.16120483865444
NOAA 10 [-]             
1 16969U 86073A   21030.56716815  .00000000  00000+0  17418-4 0  9994
2 16969  98.5219  22.3983 0012082 353.2521 116.0333 14.28122555789059
NOAA 11 [-]             
1 19531U 88089A   21030.54390079 -.00000026  00000+0  75170-5 0  9998
2 19531  98.4058  43.0608 0011081 183.0644 177.0465 14.15267118669684
NOAA 12 [-]             
1 21263U 91032A   21030.59537299 -.00000012  00000+0  12733-4 0  9997
2 21263  98.5053  39.9078 0013919  15.8580 344.3034 14.25931554545062
NOAA 13 [-]             
1 22739U 93050A   21030.54448354 -.00000022  00000+0  10313-4 0  9999
2 22739  98.4622  31.8460 0009292 351.5328   8.5687 14.12774074416043
NOAA 14 [-]             
1 23455U 94089A   21030.57422094 -.00000015  00000+0  13776-4 0  9992
2 23455  98.5126  77.8015 0008879 335.2216  24.8531 14.14156094345633
NOAA 15 [B]             
1 25338U 98030A   21030.56258779  .00000022  00000+0  27558-4 0  9990
2 25338  98.6975  60.2151 0009743 326.9584  33.0986 14.26010857181342
NOAA 16 [-]             
1 26536U 00055A   21030.60098875 -.00000003  00000+0  21474-4 0  9996
2 26536  98.7064  99.9392 0011039 155.1177 205.0530 14.13269280346329
NOAA 17 [-]             
1 27453U 02032A   21030.57918492 -.00000005  00000+0  16370-4 0  9995
2 27453  98.6135 338.4899 0010719 298.6139  61.3961 14.25086954967232
NOAA 18 [B]             
1 28654U 05018A   21030.60901795  .00000099  00000+0  77953-4 0  9994
2 28654  99.0140  94.8118 0013448 313.3449  46.6600 14.12577226808980
NOAA 19 [+]             
1 33591U 09005A   21030.55948708  .00000004  00000+0  27428-4 0  9997
2 33591  99.1926  47.7821 0014354 155.9354 204.2490 14.12450544617192
SUOMI NPP [+]           
1 37849U 11061A   21030.59591365  .00000007  00000+0  23911-4 0  9995
2 37849  98.7255 331.2009 0001020  57.5444 115.0939 14.19549120479856
NOAA 20 [+]             
1 43013U 17073A   21030.59760684  .00000000  00000+0  20977-4 0  9998
2 43013  98.7421 331.2549 0001349  79.9616 280.1712 14.19549041165883
